{"type":"FeatureCollection","features":[{"type":"Feature","geometry":{"type":"Polygon","coordinates":[[[-117.24996,34.06047],[-117.24995,34.06019],[-117.24956,34.06018],[-117.2484,34.06018],[-117.24801,34.06017],[-117.24801,34.06027],[-117.248,34.06058],[-117.248,34.0606],[-117.24795,34.06065],[-117.24778,34.06065],[-117.24728,34.06065],[-117.24712,34.06065],[-117.24711,34.0605],[-117.24711,34.06007],[-117.24711,34.05999],[-117.24711,34.05992],[-117.24671,34.05992],[-117.24667,34.05992],[-117.24663,34.05992],[-117.24655,34.05991],[-117.2464,34.05988],[-117.24632,34.05985],[-117.24615,34.05978],[-117.24605,34.05975],[-117.24584,34.05971],[-117.24578,34.0597],[-117.24571,34.05969],[-117.24554,34.05967],[-117.24541,34.05966],[-117.24532,34.05965],[-117.24515,34.05963],[-117.24485,34.05959],[-117.24483,34.05959],[-117.24447,34.05956],[-117.24397,34.0595],[-117.24367,34.05947],[-117.24366,34.05916],[-117.24342,34.05934],[-117.24309,34.05954],[-117.24261,34.05923],[-117.24233,34.05958],[-117.24186,34.05931],[-117.24181,34.05928],[-117.24161,34.05916],[-117.2415,34.05929],[-117.24147,34.05932],[-117.24143,34.05935],[-117.24139,34.05937],[-117.24132,34.05938],[-117.24131,34.05939],[-117.24125,34.05939],[-117.24074,34.0594],[-117.24054,34.0594],[-117.24019,34.0594],[-117.23981,34.05939],[-117.2398,34.05914],[-117.23978,34.05865],[-117.23979,34.05848],[-117.23981,34.05839],[-117.23983,34.05833],[-117.23985,34.05828],[-117.23994,34.05818],[-117.2401,34.05827],[-117.24057,34.05855],[-117.24073,34.05865],[-117.24085,34.05851],[-117.24121,34.0581],[-117.24133,34.05796],[-117.24126,34.05792],[-117.24105,34.05781],[-117.24098,34.05777],[-117.23989,34.05714],[-117.2388,34.05647],[-117.23803,34.05602],[-117.23798,34.05599],[-117.23622,34.05495],[-117.23472,34.05412],[-117.23408,34.05372],[-117.23193,34.05248],[-117.23065,34.05171],[-117.22915,34.05083],[-117.22883,34.05065],[-117.22695,34.0496],[-117.22617,34.04915],[-117.22621,34.04896],[-117.22627,34.04868],[-117.22629,34.04842],[-117.2263,34.04824],[-117.22629,34.04811],[-117.22627,34.04803],[-117.22621,34.0476],[-117.22618,34.04739],[-117.22616,34.04718],[-117.22615,34.04708],[-117.22612,34.04682],[-117.22611,34.04679],[-117.22611,34.04675],[-117.2261,34.04669],[-117.2261,34.04663],[-117.22608,34.04651],[-117.22609,34.0465],[-117.22609,34.04644],[-117.2261,34.04638],[-117.2261,34.04636],[-117.2261,34.04631],[-117.2261,34.04625],[-117.22609,34.04609],[-117.22608,34.04602],[-117.22608,34.04593],[-117.22608,34.0458],[-117.22607,34.04556],[-117.22607,34.04553],[-117.22607,34.04551],[-117.2251,34.04548],[-117.22481,34.04548],[-117.22465,34.04547],[-117.22451,34.04547],[-117.22422,34.04516],[-117.22387,34.04473],[-117.22373,34.04452],[-117.2232,34.04366],[-117.22314,34.04351],[-117.22301,34.04314],[-117.223,34.04312],[-117.22323,34.04311],[-117.22425,34.04311],[-117.22418,34.04301],[-117.22366,34.04241],[-117.22256,34.04108],[-117.22236,34.04108],[-117.22212,34.0408],[-117.2216,34.04016],[-117.22082,34.03922],[-117.22031,34.03861],[-117.21984,34.03806],[-117.21926,34.03745],[-117.21954,34.03751],[-117.21978,34.03751],[-117.22051,34.0375],[-117.22093,34.0375],[-117.22272,34.03749],[-117.22346,34.03748],[-117.22485,34.03748],[-117.22537,34.03748],[-117.22592,34.03748],[-117.22903,34.03751],[-117.22915,34.03751],[-117.23043,34.03752],[-117.2305,34.03752],[-117.23137,34.03752],[-117.23199,34.03751],[-117.23321,34.03751],[-117.23399,34.03751],[-117.23412,34.03752],[-117.23472,34.03753],[-117.23486,34.03757],[-117.23482,34.03593],[-117.23478,34.03388],[-117.23772,34.03391],[-117.23941,34.03393],[-117.23935,34.03385],[-117.23929,34.03379],[-117.23926,34.03376],[-117.23913,34.03367],[-117.23909,34.03365],[-117.23904,34.03364],[-117.23899,34.03363],[-117.23894,34.03363],[-117.23885,34.03364],[-117.23875,34.03366],[-117.23866,34.03366],[-117.23862,34.03365],[-117.23856,34.03363],[-117.23853,34.0336],[-117.23853,34.03358],[-117.23851,34.03352],[-117.2385,34.03343],[-117.2385,34.03328],[-117.23851,34.03323],[-117.23852,34.03319],[-117.23855,34.03316],[-117.23856,34.03313],[-117.2386,34.03309],[-117.23862,34.03306],[-117.23863,34.03303],[-117.23863,34.033],[-117.23862,34.03297],[-117.23861,34.03294],[-117.23857,34.03291],[-117.23852,34.03289],[-117.23846,34.03289],[-117.23837,34.03287],[-117.23836,34.03286],[-117.23834,34.03285],[-117.23828,34.03282],[-117.23825,34.0328],[-117.23824,34.03278],[-117.23821,34.03273],[-117.23819,34.03269],[-117.23816,34.03265],[-117.23811,34.03262],[-117.23804,34.03259],[-117.23789,34.03255],[-117.23775,34.03251],[-117.23749,34.03243],[-117.23745,34.03242],[-117.23742,34.03239],[-117.23737,34.03233],[-117.23735,34.0323],[-117.23734,34.03226],[-117.23733,34.03217],[-117.23733,34.03216],[-117.2373,34.03208],[-117.23728,34.03204],[-117.23725,34.03201],[-117.23719,34.03196],[-117.23708,34.03191],[-117.23697,34.03188],[-117.23691,34.03186],[-117.23685,34.03185],[-117.23659,34.03181],[-117.23655,34.03181],[-117.23645,34.03178],[-117.2364,34.03177],[-117.23635,34.03174],[-117.23621,34.03164],[-117.23587,34.03143],[-117.23578,34.03138],[-117.23567,34.03133],[-117.23557,34.03129],[-117.23546,34.03126],[-117.23533,34.03123],[-117.2351,34.03117],[-117.23501,34.03114],[-117.23493,34.0311],[-117.23483,34.03106],[-117.23474,34.031],[-117.23468,34.03096],[-117.23456,34.03085],[-117.23434,34.0307],[-117.23416,34.03052],[-117.23402,34.03034],[-117.23394,34.03025],[-117.23387,34.03016],[-117.23384,34.03013],[-117.23377,34.03007],[-117.23374,34.03003],[-117.23369,34.02993],[-117.23366,34.02987],[-117.23364,34.0298],[-117.23363,34.02973],[-117.23362,34.02967],[-117.23363,34.02956],[-117.23364,34.02948],[-117.23367,34.02939],[-117.23374,34.02928],[-117.23376,34.02923],[-117.23381,34.02914],[-117.23387,34.02909],[-117.23391,34.02906],[-117.234,34.02903],[-117.23406,34.02901],[-117.23419,34.029],[-117.23427,34.02899],[-117.23435,34.029],[-117.2345,34.029],[-117.23475,34.029],[-117.2348,34.029],[-117.2349,34.02897],[-117.23513,34.02886],[-117.23528,34.02881],[-117.23536,34.02878],[-117.23543,34.02877],[-117.23552,34.02876],[-117.23558,34.02878],[-117.2356,34.02876],[-117.23565,34.02872],[-117.23582,34.02871],[-117.23589,34.0287],[-117.23596,34.02869],[-117.23609,34.02866],[-117.23627,34.02864],[-117.23643,34.02861],[-117.2365,34.02861],[-117.23672,34.02863],[-117.23704,34.02866],[-117.23723,34.02867],[-117.23733,34.02869],[-117.23763,34.02874],[-117.2377,34.02875],[-117.23776,34.02875],[-117.23789,34.02875],[-117.23814,34.02876],[-117.23825,34.02878],[-117.2383,34.02878],[-117.23835,34.02878],[-117.2384,34.02878],[-117.23844,34.02876],[-117.23851,34.02872],[-117.23854,34.02869],[-117.23859,34.02861],[-117.23867,34.02851],[-117.23871,34.02847],[-117.23875,34.02843],[-117.2388,34.0284],[-117.23892,34.02835],[-117.23899,34.02833],[-117.23923,34.02827],[-117.23933,34.02824],[-117.23942,34.02821],[-117.23967,34.0281],[-117.23976,34.02808],[-117.23994,34.02804],[-117.23999,34.02803],[-117.24003,34.02801],[-117.24005,34.02799],[-117.24009,34.02795],[-117.24012,34.02792],[-117.24012,34.02772],[-117.24013,34.02763],[-117.24015,34.02759],[-117.24017,34.02755],[-117.2402,34.02752],[-117.24037,34.02736],[-117.2405,34.02725],[-117.24051,34.02723],[-117.24052,34.02719],[-117.24051,34.02717],[-117.24048,34.02706],[-117.24045,34.02701],[-117.24043,34.02697],[-117.2404,34.02693],[-117.24036,34.02691],[-117.2403,34.02687],[-117.24025,34.02685],[-117.24019,34.02682],[-117.24011,34.02677],[-117.24008,34.02674],[-117.24006,34.0267],[-117.24004,34.02666],[-117.24004,34.02662],[-117.24004,34.02658],[-117.24004,34.02655],[-117.24005,34.0265],[-117.24007,34.02639],[-117.24011,34.02612],[-117.24014,34.02588],[-117.24022,34.02553],[-117.24025,34.02545],[-117.24037,34.02519],[-117.24042,34.02505],[-117.24043,34.02501],[-117.24043,34.02497],[-117.2404,34.02487],[-117.24038,34.02475],[-117.24036,34.02469],[-117.24033,34.02464],[-117.2403,34.02459],[-117.24028,34.02455],[-117.24026,34.02446],[-117.24021,34.02437],[-117.24018,34.02433],[-117.24005,34.02421],[-117.24,34.02415],[-117.23994,34.02408],[-117.23991,34.02402],[-117.2399,34.02396],[-117.23991,34.02392],[-117.23993,34.02381],[-117.23994,34.02378],[-117.24,34.02368],[-117.24006,34.0236],[-117.24012,34.02352],[-117.24015,34.02347],[-117.24017,34.02342],[-117.24019,34.02334],[-117.2402,34.02315],[-117.24021,34.0231],[-117.24025,34.02301],[-117.24027,34.02297],[-117.24031,34.02292],[-117.24039,34.02283],[-117.24047,34.02274],[-117.2405,34.0227],[-117.24055,34.02258],[-117.24061,34.0225],[-117.24065,34.02246],[-117.24074,34.02238],[-117.2408,34.02235],[-117.24091,34.02229],[-117.24102,34.02226],[-117.24107,34.02224],[-117.24134,34.02206],[-117.24147,34.022],[-117.24162,34.02192],[-117.24171,34.02187],[-117.24174,34.02184],[-117.24177,34.02181],[-117.24179,34.02177],[-117.2418,34.0217],[-117.24182,34.02155],[-117.24182,34.02145],[-117.2418,34.02117],[-117.24179,34.02112],[-117.24174,34.021],[-117.24169,34.02092],[-117.24163,34.02083],[-117.24152,34.02068],[-117.24143,34.02051],[-117.24139,34.02046],[-117.24128,34.02033],[-117.24102,34.02009],[-117.24098,34.02004],[-117.24095,34.02],[-117.24092,34.01993],[-117.24091,34.01986],[-117.2409,34.01983],[-117.24086,34.01977],[-117.24079,34.0197],[-117.24077,34.01967],[-117.2406,34.01932],[-117.24055,34.01924],[-117.24053,34.0192],[-117.24049,34.01915],[-117.24039,34.01908],[-117.2402,34.01897],[-117.24009,34.0189],[-117.23998,34.01881],[-117.23992,34.01875],[-117.23988,34.01866],[-117.23971,34.01825],[-117.22591,34.01797],[-117.22553,34.01797],[-117.22546,34.01277],[-117.22537,34.00677],[-117.22537,34.00578],[-117.22537,34.00535],[-117.22537,34.00431],[-117.22537,34.00419],[-117.21902,34.00414],[-117.21661,34.00413],[-117.21395,34.00411],[-117.21227,34.0041],[-117.21009,34.00178],[-117.20925,34.00087],[-117.20646,33.99788],[-117.2064,33.99782],[-117.20588,33.99726],[-117.20391,33.99532],[-117.20177,33.99321],[-117.20016,33.99235],[-117.19909,33.99178],[-117.19722,33.99078],[-117.19491,33.98993],[-117.19494,33.9899],[-117.19503,33.9898],[-117.19506,33.98976],[-117.19518,33.9896],[-117.19536,33.98933],[-117.19542,33.98919],[-117.19545,33.98907],[-117.19544,33.98896],[-117.19542,33.98887],[-117.19538,33.98881],[-117.19536,33.98877],[-117.19524,33.98864],[-117.19496,33.9884],[-117.19479,33.9883],[-117.19465,33.98826],[-117.19453,33.98824],[-117.19415,33.98828],[-117.19381,33.98831],[-117.19359,33.9883],[-117.19344,33.98827],[-117.19328,33.98823],[-117.1931,33.98816],[-117.19275,33.98794],[-117.19196,33.98734],[-117.19186,33.98723],[-117.1918,33.98717],[-117.19182,33.9871],[-117.19185,33.98692],[-117.19189,33.98649],[-117.19192,33.98631],[-117.19196,33.98621],[-117.1921,33.98602],[-117.19219,33.98597],[-117.19225,33.98593],[-117.19234,33.98587],[-117.19245,33.98584],[-117.1926,33.98579],[-117.19269,33.98577],[-117.19312,33.98565],[-117.19316,33.98563],[-117.19333,33.98552],[-117.19346,33.98539],[-117.19369,33.98508],[-117.19375,33.98494],[-117.1938,33.98485],[-117.19388,33.98477],[-117.19392,33.98474],[-117.19398,33.98472],[-117.19419,33.98464],[-117.19429,33.9846],[-117.19446,33.98452],[-117.19469,33.98435],[-117.19511,33.98394],[-117.19547,33.98369],[-117.19578,33.98353],[-117.19647,33.98331],[-117.1969,33.98319],[-117.19731,33.98308],[-117.19736,33.98306],[-117.19768,33.983],[-117.19792,33.98303],[-117.19797,33.98304],[-117.19802,33.98305],[-117.19828,33.98315],[-117.19864,33.98329],[-117.19913,33.98341],[-117.19957,33.98348],[-117.19974,33.98353],[-117.19977,33.98348],[-117.19994,33.98312],[-117.19999,33.98298],[-117.20002,33.98291],[-117.20003,33.98289],[-117.20006,33.98276],[-117.20005,33.98267],[-117.20005,33.98259],[-117.19792,33.98263],[-117.19236,33.98264],[-117.18907,33.98264],[-117.18499,33.98262],[-117.1845,33.98262],[-117.18385,33.98261],[-117.17559,33.98257],[-117.17435,33.98258],[-117.17433,33.9834],[-117.17424,33.9863],[-117.174,33.98624],[-117.17306,33.98601],[-117.16957,33.98513],[-117.15912,33.98249],[-117.15707,33.98198],[-117.15563,33.98161],[-117.15515,33.98156],[-117.15458,33.98151],[-117.15326,33.9814],[-117.15193,33.98118],[-117.15151,33.98105],[-117.15046,33.98073],[-117.1502,33.98065],[-117.14914,33.98017],[-117.14843,33.9797],[-117.14748,33.9791],[-117.14666,33.97846],[-117.14657,33.97838],[-117.14608,33.97794],[-117.14527,33.97714],[-117.14436,33.97615],[-117.14369,33.9754],[-117.14332,33.97498],[-117.1424,33.97414],[-117.14088,33.97305],[-117.13903,33.9718],[-117.13867,33.97158],[-117.13804,33.9712],[-117.13709,33.97062],[-117.13586,33.96992],[-117.13536,33.96962],[-117.13373,33.96868],[-117.1335,33.96855],[-117.13302,33.96828],[-117.13079,33.9671],[-117.13067,33.96704],[-117.1281,33.966],[-117.12788,33.9659],[-117.12611,33.96515],[-117.12512,33.96453],[-117.12344,33.96371],[-117.1224,33.9634],[-117.12223,33.96335],[-117.12128,33.96311],[-117.12118,33.96309],[-117.12013,33.96274],[-117.11952,33.96241],[-117.11922,33.96226],[-117.11874,33.962],[-117.11809,33.96151],[-117.11711,33.96078],[-117.11633,33.95998],[-117.11444,33.95806],[-117.11443,33.95805],[-117.11418,33.95788],[-117.1138,33.95755],[-117.11308,33.95672],[-117.11244,33.95593],[-117.11151,33.95483],[-117.11137,33.9547],[-117.11104,33.95419],[-117.11078,33.95378],[-117.10995,33.95249],[-117.10854,33.95075],[-117.10692,33.94887],[-117.10514,33.94727],[-117.10507,33.94721],[-117.10325,33.9457],[-117.10207,33.94476],[-117.10172,33.94449],[-117.10114,33.94403],[-117.10069,33.94345],[-117.10033,33.94299],[-117.09991,33.94228],[-117.09947,33.94116],[-117.09937,33.94043],[-117.09932,33.94003],[-117.09951,33.93861],[-117.0998,33.9374],[-117.0999,33.93712],[-117.09969,33.93718],[-117.09941,33.93728],[-117.09901,33.93747],[-117.09844,33.93778],[-117.09732,33.93832],[-117.0958,33.9391],[-117.09524,33.93935],[-117.09492,33.93948],[-117.09446,33.93963],[-117.09402,33.93975],[-117.09329,33.93997],[-117.09289,33.94009],[-117.09224,33.94033],[-117.09182,33.94053],[-117.09139,33.94077],[-117.09091,33.94109],[-117.09045,33.9414],[-117.09009,33.94159],[-117.08972,33.94175],[-117.08906,33.94198],[-117.08679,33.94271],[-117.08593,33.94298],[-117.08565,33.94305],[-117.08539,33.94311],[-117.08475,33.94321],[-117.08433,33.94325],[-117.08372,33.94328],[-117.08292,33.94329],[-117.08232,33.94329],[-117.08172,33.94333],[-117.08144,33.94336],[-117.08096,33.94344],[-117.08049,33.94354],[-117.07997,33.94366],[-117.07961,33.94374],[-117.0792,33.9438],[-117.07916,33.9438],[-117.07894,33.94382],[-117.07852,33.94383],[-117.07804,33.9438],[-117.07792,33.94379],[-117.07729,33.94371],[-117.07639,33.94357],[-117.07597,33.94347],[-117.07567,33.94343],[-117.07535,33.94339],[-117.07493,33.94337],[-117.07456,33.94337],[-117.07416,33.94341],[-117.07376,33.94347],[-117.07369,33.94349],[-117.07326,33.9436],[-117.07273,33.94377],[-117.07215,33.94406],[-117.07163,33.94439],[-117.07084,33.94492],[-117.07021,33.94541],[-117.07001,33.94552],[-117.06962,33.94572],[-117.06941,33.9458],[-117.06895,33.94596],[-117.06848,33.94607],[-117.0672,33.94629],[-117.06636,33.94645],[-117.06476,33.94674],[-117.06249,33.94714],[-117.062,33.9472],[-117.06172,33.94721],[-117.06161,33.94722],[-117.06097,33.94719],[-117.06026,33.94709],[-117.05972,33.94697],[-117.05914,33.94679],[-117.05847,33.94655],[-117.05795,33.94631],[-117.05723,33.94594],[-117.05646,33.94551],[-117.05488,33.94462],[-117.05342,33.94379],[-117.05233,33.94321],[-117.05186,33.94295],[-117.0512,33.94264],[-117.0504,33.94232],[-117.04807,33.94146],[-117.04646,33.94088],[-117.04518,33.94039],[-117.04235,33.93937],[-117.04159,33.93908],[-117.04085,33.93872],[-117.04033,33.93838],[-117.03982,33.938],[-117.03952,33.93772],[-117.03945,33.93765],[-117.03874,33.93689],[-117.03833,33.93644],[-117.038,33.93618],[-117.0373,33.93572],[-117.03682,33.93548],[-117.03626,33.93524],[-117.036,33.93513],[-117.03539,33.93489],[-117.0351,33.93477],[-117.03476,33.93463],[-117.03438,33.93448],[-117.03426,33.93443],[-117.03414,33.93438],[-117.03414,33.93529],[-117.03414,33.93545],[-117.03415,33.93657],[-117.03415,33.93825],[-117.03416,33.93895],[-117.03416,33.93969],[-117.03417,33.94121],[-117.03417,33.94271],[-117.03417,33.94301],[-117.03419,33.94301],[-117.03448,33.94298],[-117.03473,33.94295],[-117.03556,33.94288],[-117.03601,33.94283],[-117.03697,33.94274],[-117.03803,33.94263],[-117.0384,33.9426],[-117.03847,33.9426],[-117.03895,33.94258],[-117.03928,33.94257],[-117.03965,33.94258],[-117.04041,33.94264],[-117.04078,33.94268],[-117.0412,33.94274],[-117.04183,33.94285],[-117.04245,33.94297],[-117.04295,33.94309],[-117.04378,33.94328],[-117.04502,33.94362],[-117.04566,33.94381],[-117.04625,33.94401],[-117.04675,33.94418],[-117.04677,33.94418],[-117.04728,33.94438],[-117.04829,33.94481],[-117.04922,33.94525],[-117.04936,33.94533],[-117.04975,33.94553],[-117.0502,33.9458],[-117.05049,33.94597],[-117.05069,33.94609],[-117.05125,33.94647],[-117.05157,33.94669],[-117.05183,33.94688],[-117.05258,33.94748],[-117.05358,33.94836],[-117.05361,33.94839],[-117.05456,33.94922],[-117.05624,33.9507],[-117.05662,33.95102],[-117.0569,33.95126],[-117.05911,33.95316],[-117.05978,33.95374],[-117.06073,33.95458],[-117.06158,33.95537],[-117.06271,33.95638],[-117.06279,33.95645],[-117.06428,33.95774],[-117.06486,33.95825],[-117.06526,33.9586],[-117.06718,33.96027],[-117.06798,33.96096],[-117.06883,33.9617],[-117.07039,33.96306],[-117.07156,33.96408],[-117.07242,33.96484],[-117.07327,33.96558],[-117.07385,33.9661],[-117.07466,33.9668],[-117.07505,33.96713],[-117.07546,33.96747],[-117.07581,33.96774],[-117.07629,33.96809],[-117.07671,33.96838],[-117.07718,33.96868],[-117.07766,33.96897],[-117.078,33.96917],[-117.07864,33.96952],[-117.07908,33.96976],[-117.07968,33.97009],[-117.081,33.97082],[-117.08264,33.97172],[-117.08365,33.97226],[-117.08424,33.97258],[-117.08483,33.97289],[-117.08661,33.97388],[-117.08677,33.97397],[-117.08675,33.97403],[-117.08675,33.97405],[-117.0867,33.97426],[-117.0869,33.9743],[-117.08697,33.97432],[-117.08708,33.97434],[-117.08725,33.97437],[-117.0875,33.97445],[-117.0877,33.97451],[-117.08843,33.97486],[-117.08873,33.97496],[-117.089,33.975],[-117.08928,33.97503],[-117.08956,33.97505],[-117.08984,33.97506],[-117.09011,33.97506],[-117.09039,33.97505],[-117.09067,33.97503],[-117.09094,33.97501],[-117.09122,33.97497],[-117.09139,33.97494],[-117.09149,33.97493],[-117.09172,33.97489],[-117.09345,33.97457],[-117.09372,33.97453],[-117.09399,33.9745],[-117.09409,33.9745],[-117.09426,33.97449],[-117.09453,33.97449],[-117.09481,33.9745],[-117.09498,33.97452],[-117.09507,33.97453],[-117.09507,33.97457],[-117.09509,33.97564],[-117.09015,33.97969],[-117.08645,33.98274],[-117.08639,33.98913],[-117.08638,33.98991],[-117.087,33.98992],[-117.10097,33.99009],[-117.10448,33.99011],[-117.1082,33.99003],[-117.11145,33.98998],[-117.11249,33.98994],[-117.11277,34.00412],[-117.11125,34.00417],[-117.11029,34.00419],[-117.10674,34.00429],[-117.10388,34.00402],[-117.10132,34.00402],[-117.10047,34.00402],[-117.09899,34.00421],[-117.08919,34.0039],[-117.08652,34.00382],[-117.08356,34.00383],[-117.08246,34.00384],[-117.08236,34.00387],[-117.08098,34.00384],[-117.0789,34.00385],[-117.07519,34.00386],[-117.07448,34.00387],[-117.0706,34.00388],[-117.06917,34.00389],[-117.06735,34.00391],[-117.06649,34.00392],[-117.06603,34.00393],[-117.06563,34.00393],[-117.06516,34.00394],[-117.06486,34.00394],[-117.06497,34.00416],[-117.06581,34.00568],[-117.06609,34.00619],[-117.06648,34.00694],[-117.06674,34.00742],[-117.06679,34.00753],[-117.06705,34.00801],[-117.06714,34.00817],[-117.06756,34.00883],[-117.0677,34.00903],[-117.06799,34.00937],[-117.06818,34.00958],[-117.06866,34.01005],[-117.06879,34.01018],[-117.06895,34.01032],[-117.06933,34.01062],[-117.06935,34.01064],[-117.06955,34.01079],[-117.06982,34.01097],[-117.0705,34.01137],[-117.07059,34.01143],[-117.07088,34.01159],[-117.07103,34.01166],[-117.07163,34.01193],[-117.07206,34.01211],[-117.07231,34.01219],[-117.073,34.0124],[-117.07323,34.01246],[-117.07379,34.01259],[-117.07383,34.0126],[-117.07546,34.01294],[-117.07618,34.01309],[-117.07874,34.01366],[-117.08415,34.01478],[-117.08595,34.01515],[-117.08643,34.01523],[-117.08686,34.01529],[-117.08712,34.01532],[-117.08753,34.01536],[-117.08763,34.01536],[-117.08774,34.01537],[-117.08802,34.01538],[-117.0883,34.01539],[-117.08847,34.01539],[-117.08865,34.01539],[-117.08983,34.01536],[-117.0906,34.01534],[-117.09078,34.01534],[-117.09097,34.01534],[-117.09114,34.01535],[-117.09132,34.01536],[-117.09149,34.01538],[-117.09181,34.01542],[-117.0919,34.01543],[-117.09215,34.01548],[-117.09217,34.01548],[-117.09226,34.0155],[-117.09242,34.01553],[-117.09268,34.01558],[-117.09295,34.01564],[-117.09302,34.01566],[-117.09352,34.01579],[-117.09388,34.01589],[-117.09406,34.01595],[-117.09424,34.01601],[-117.09443,34.01609],[-117.09516,34.0164],[-117.09525,34.01644],[-117.09534,34.01648],[-117.09552,34.01658],[-117.09569,34.01667],[-117.09594,34.01683],[-117.09622,34.01701],[-117.09708,34.01756],[-117.09732,34.01772],[-117.09737,34.01775],[-117.09741,34.01778],[-117.09749,34.01783],[-117.09785,34.01806],[-117.09797,34.01814],[-117.0992,34.0189],[-117.09963,34.01917],[-117.10287,34.02119],[-117.1041,34.02196],[-117.10469,34.02232],[-117.10517,34.02261],[-117.10544,34.02277],[-117.10588,34.023],[-117.10612,34.02313],[-117.10681,34.02342],[-117.10706,34.02352],[-117.10708,34.02353],[-117.10725,34.02359],[-117.10774,34.02375],[-117.1082,34.02387],[-117.10848,34.02394],[-117.1106,34.02434],[-117.11126,34.02447],[-117.11197,34.02462],[-117.11334,34.0249],[-117.11423,34.0251],[-117.11444,34.02515],[-117.11489,34.02525],[-117.11535,34.02537],[-117.11581,34.0255],[-117.11609,34.02557],[-117.11844,34.02652],[-117.11887,34.02672],[-117.11898,34.02677],[-117.11911,34.02683],[-117.11914,34.02684],[-117.11925,34.02688],[-117.11928,34.02689],[-117.11944,34.02696],[-117.11962,34.02702],[-117.11997,34.02713],[-117.12007,34.02716],[-117.12034,34.02723],[-117.12083,34.02735],[-117.12164,34.02748],[-117.12214,34.02755],[-117.12237,34.02758],[-117.12255,34.0276],[-117.12338,34.02771],[-117.1236,34.02774],[-117.12425,34.02784],[-117.12446,34.02787],[-117.12453,34.02788],[-117.12471,34.02791],[-117.12475,34.02792],[-117.12477,34.02792],[-117.12485,34.02793],[-117.12508,34.02797],[-117.12516,34.02798],[-117.12538,34.02801],[-117.12593,34.0281],[-117.12602,34.02811],[-117.12623,34.02815],[-117.12646,34.02819],[-117.12691,34.02829],[-117.12713,34.02835],[-117.12747,34.02845],[-117.12764,34.02851],[-117.12797,34.02864],[-117.12813,34.02871],[-117.12823,34.02876],[-117.12845,34.02886],[-117.12941,34.02936],[-117.12988,34.0296],[-117.13015,34.02973],[-117.13056,34.02992],[-117.13127,34.0302],[-117.13286,34.0308],[-117.13361,34.03109],[-117.13399,34.03125],[-117.13417,34.03133],[-117.13476,34.03158],[-117.13568,34.03198],[-117.13592,34.03208],[-117.13649,34.03234],[-117.13687,34.0325],[-117.13719,34.03265],[-117.13736,34.03272],[-117.13793,34.03295],[-117.13823,34.03307],[-117.13881,34.0333],[-117.13912,34.03342],[-117.13942,34.03354],[-117.13995,34.03372],[-117.14076,34.03398],[-117.14082,34.034],[-117.14128,34.03414],[-117.14232,34.03444],[-117.14385,34.03487],[-117.1447,34.0351],[-117.14512,34.03522],[-117.14554,34.03535],[-117.14618,34.03555],[-117.1465,34.03566],[-117.14681,34.03577],[-117.14693,34.03581],[-117.14713,34.03588],[-117.14817,34.0363],[-117.14855,34.03644],[-117.1489,34.0366],[-117.14934,34.0368],[-117.15026,34.03727],[-117.1504,34.03734],[-117.15071,34.0375],[-117.15128,34.0378],[-117.15157,34.03797],[-117.15196,34.0382],[-117.15239,34.03848],[-117.15253,34.03858],[-117.15277,34.03878],[-117.15314,34.03906],[-117.15341,34.0393],[-117.15356,34.03943],[-117.15418,34.03961],[-117.15434,34.03965],[-117.15442,34.03966],[-117.15458,34.03971],[-117.15467,34.03974],[-117.15517,34.04001],[-117.15542,34.04015],[-117.15629,34.04061],[-117.1571,34.04109],[-117.15741,34.04127],[-117.15885,34.04196],[-117.15963,34.04233],[-117.16048,34.04274],[-117.16077,34.04288],[-117.16094,34.04295],[-117.161,34.04297],[-117.16114,34.04303],[-117.16137,34.0431],[-117.16163,34.04318],[-117.16206,34.0433],[-117.16264,34.04346],[-117.16304,34.04358],[-117.16319,34.04362],[-117.16372,34.04377],[-117.16402,34.04385],[-117.16475,34.0441],[-117.16529,34.04434],[-117.1658,34.04457],[-117.16621,34.04482],[-117.16633,34.04489],[-117.16655,34.04503],[-117.1669,34.04527],[-117.16706,34.04539],[-117.16721,34.04551],[-117.16739,34.04567],[-117.16748,34.04575],[-117.16761,34.04587],[-117.16774,34.046],[-117.16787,34.04613],[-117.16813,34.04642],[-117.16822,34.04652],[-117.16827,34.04659],[-117.16833,34.04666],[-117.16842,34.04678],[-117.1687,34.04714],[-117.1688,34.04726],[-117.16928,34.04787],[-117.17074,34.04968],[-117.17123,34.05029],[-117.17255,34.05187],[-117.17275,34.05212],[-117.17354,34.05294],[-117.17379,34.0532],[-117.17394,34.05334],[-117.17417,34.05361],[-117.17501,34.05463],[-117.17503,34.05465],[-117.17516,34.05483],[-117.17557,34.05535],[-117.1757,34.05552],[-117.17575,34.05559],[-117.17592,34.05579],[-117.17597,34.05586],[-117.17607,34.05597],[-117.17632,34.05629],[-117.17635,34.05631],[-117.17645,34.05641],[-117.17638,34.05641],[-117.17617,34.05641],[-117.17609,34.05641],[-117.17609,34.05659],[-117.17606,34.05715],[-117.17606,34.05733],[-117.17629,34.05734],[-117.17698,34.05735],[-117.17721,34.05735],[-117.17743,34.05733],[-117.17809,34.05728],[-117.17831,34.05726],[-117.1785,34.05727],[-117.17855,34.05728],[-117.17907,34.05729],[-117.17927,34.0573],[-117.17948,34.0573],[-117.18014,34.0573],[-117.18036,34.05731],[-117.18036,34.05765],[-117.18037,34.05867],[-117.18037,34.05901],[-117.18058,34.05901],[-117.18119,34.05902],[-117.1814,34.05902],[-117.18142,34.05885],[-117.18143,34.05868],[-117.18144,34.05852],[-117.18143,34.05803],[-117.18143,34.05765],[-117.18143,34.05731],[-117.18166,34.05731],[-117.18235,34.05732],[-117.18258,34.05732],[-117.18257,34.05755],[-117.18257,34.05825],[-117.18257,34.05849],[-117.18277,34.05849],[-117.18341,34.05848],[-117.18362,34.05848],[-117.18375,34.0585],[-117.18417,34.05855],[-117.18431,34.05857],[-117.1843,34.05832],[-117.18429,34.05757],[-117.18428,34.05732],[-117.18458,34.05732],[-117.18546,34.05732],[-117.18575,34.05732],[-117.18576,34.05758],[-117.18576,34.0576],[-117.18579,34.05777],[-117.18583,34.05789],[-117.18589,34.05803],[-117.18599,34.05822],[-117.18604,34.05829],[-117.18612,34.05844],[-117.18618,34.05851],[-117.18705,34.05851],[-117.18722,34.05851],[-117.18762,34.0585],[-117.18813,34.0585],[-117.18942,34.05852],[-117.19033,34.05852],[-117.19047,34.05852],[-117.19137,34.0585],[-117.19137,34.05862],[-117.19137,34.05897],[-117.19137,34.05909],[-117.19203,34.05915],[-117.19217,34.05916],[-117.19271,34.05923],[-117.19336,34.05933],[-117.19393,34.05944],[-117.194,34.05945],[-117.19465,34.05957],[-117.19487,34.05962],[-117.19512,34.05968],[-117.19553,34.05978],[-117.19575,34.05983],[-117.19621,34.05996],[-117.19662,34.06008],[-117.19724,34.06026],[-117.19803,34.06048],[-117.19847,34.0606],[-117.19876,34.06069],[-117.19924,34.06083],[-117.20012,34.06107],[-117.20011,34.06102],[-117.20011,34.06086],[-117.20011,34.06081],[-117.20099,34.06106],[-117.20362,34.06179],[-117.2045,34.06203],[-117.20498,34.06219],[-117.20527,34.06228],[-117.20544,34.06233],[-117.20592,34.06246],[-117.20639,34.06257],[-117.20679,34.06265],[-117.20719,34.06272],[-117.20757,34.06278],[-117.20765,34.06279],[-117.2077,34.0628],[-117.20846,34.06286],[-117.20853,34.06287],[-117.20875,34.06288],[-117.20883,34.06288],[-117.20882,34.06302],[-117.20881,34.06344],[-117.2088,34.06359],[-117.20978,34.06384],[-117.2105,34.06403],[-117.21052,34.06404],[-117.21101,34.06417],[-117.21221,34.06452],[-117.21296,34.06474],[-117.21369,34.06495],[-117.21442,34.06514],[-117.21482,34.06523],[-117.21532,34.06534],[-117.21561,34.06541],[-117.21569,34.06542],[-117.21647,34.06555],[-117.21699,34.06562],[-117.21721,34.06564],[-117.21745,34.06564],[-117.21745,34.06574],[-117.21745,34.06604],[-117.21745,34.06614],[-117.21745,34.06626],[-117.21745,34.06647],[-117.21817,34.06648],[-117.22114,34.0665],[-117.22618,34.06651],[-117.22616,34.06628],[-117.22616,34.06617],[-117.22615,34.06578],[-117.2261,34.06357],[-117.2261,34.06323],[-117.22609,34.06308],[-117.22617,34.06308],[-117.22638,34.06307],[-117.22645,34.06307],[-117.22659,34.06339],[-117.22671,34.06365],[-117.22689,34.06393],[-117.22709,34.06417],[-117.22734,34.0644],[-117.22771,34.06467],[-117.22813,34.06488],[-117.22838,34.06499],[-117.22878,34.06444],[-117.22888,34.06428],[-117.2289,34.06423],[-117.22805,34.06385],[-117.22785,34.06375],[-117.22786,34.06332],[-117.22782,34.06332],[-117.22781,34.06307],[-117.22824,34.06307],[-117.2306,34.06308],[-117.23072,34.06308],[-117.2311,34.06307],[-117.23122,34.06307],[-117.23122,34.06317],[-117.23122,34.06346],[-117.23122,34.0635],[-117.23164,34.06351],[-117.23163,34.06372],[-117.2316,34.06372],[-117.23157,34.06421],[-117.23158,34.06438],[-117.2315,34.06451],[-117.23127,34.06456],[-117.23049,34.06455],[-117.23049,34.06493],[-117.23056,34.06496],[-117.23055,34.06542],[-117.23417,34.06542],[-117.23494,34.06547],[-117.23494,34.06545],[-117.23494,34.06542],[-117.23494,34.06503],[-117.23494,34.0649],[-117.23494,34.06453],[-117.23494,34.06343],[-117.23495,34.06306],[-117.2355,34.06306],[-117.23718,34.06305],[-117.23774,34.06305],[-117.23824,34.06305],[-117.23975,34.06305],[-117.24026,34.06305],[-117.24054,34.06304],[-117.2414,34.06304],[-117.24169,34.06304],[-117.24209,34.06304],[-117.24329,34.06305],[-117.24369,34.06305],[-117.24456,34.06305],[-117.24718,34.06306],[-117.24759,34.06306],[-117.24805,34.06306],[-117.24841,34.06306],[-117.24951,34.06307],[-117.24987,34.06307],[-117.24986,34.06249],[-117.24985,34.06175],[-117.24986,34.06168],[-117.24987,34.06154],[-117.24988,34.06147],[-117.24993,34.06132],[-117.24995,34.06125],[-117.24995,34.06079],[-117.24995,34.06077],[-117.24996,34.06047]]]},"properties":{"ZCTA5":"92373"}},{"type":"Feature","geometry":{"type":"Polygon","coordinates":[[[-117.24397,34.08771],[-117.24393,34.08739],[-117.2438,34.08643],[-117.24378,34.08625],[-117.24376,34.08611],[-117.24375,34.08595],[-117.24375,34.08587],[-117.24373,34.08548],[-117.24372,34.08538],[-117.24372,34.08532],[-117.24373,34.08505],[-117.24373,34.08492],[-117.24374,34.08477],[-117.24375,34.08452],[-117.24376,34.08423],[-117.24376,34.08421],[-117.24377,34.08394],[-117.24375,34.08365],[-117.24373,34.08347],[-117.24373,34.08303],[-117.24374,34.0828],[-117.24374,34.08251],[-117.24373,34.0822],[-117.24372,34.08129],[-117.24372,34.08099],[-117.24372,34.08052],[-117.24371,34.07953],[-117.24371,34.07911],[-117.24371,34.07865],[-117.24371,34.07843],[-117.24371,34.07778],[-117.24371,34.07756],[-117.24366,34.07756],[-117.24366,34.07723],[-117.24366,34.07624],[-117.24366,34.07591],[-117.24366,34.07559],[-117.24366,34.07462],[-117.24366,34.07429],[-117.24366,34.07406],[-117.24366,34.07337],[-117.24367,34.07314],[-117.24367,34.07277],[-117.24367,34.07272],[-117.24365,34.07169],[-117.24365,34.07165],[-117.24364,34.07127],[-117.24364,34.07125],[-117.24364,34.07116],[-117.24364,34.07114],[-117.24365,34.07088],[-117.24366,34.07059],[-117.2437,34.06896],[-117.24372,34.06842],[-117.24372,34.06814],[-117.2437,34.06732],[-117.2437,34.0671],[-117.2437,34.06704],[-117.2437,34.06702],[-117.2437,34.06695],[-117.2437,34.06693],[-117.2437,34.06689],[-117.2437,34.06677],[-117.2437,34.06673],[-117.2437,34.06663],[-117.2437,34.06646],[-117.24369,34.06631],[-117.24369,34.0662],[-117.24367,34.06631],[-117.24367,34.0662],[-117.24368,34.06546],[-117.24369,34.06491],[-117.24331,34.06493],[-117.24327,34.06493],[-117.24316,34.06495],[-117.24302,34.06498],[-117.24285,34.06505],[-117.24271,34.06511],[-117.24252,34.06521],[-117.2424,34.06525],[-117.24221,34.0653],[-117.2421,34.06532],[-117.24203,34.06533],[-117.24184,34.06534],[-117.24169,34.06533],[-117.24169,34.06487],[-117.24169,34.0635],[-117.24169,34.06304],[-117.2414,34.06304],[-117.24054,34.06304],[-117.24026,34.06305],[-117.23975,34.06305],[-117.23824,34.06305],[-117.23774,34.06305],[-117.23718,34.06305],[-117.2355,34.06306],[-117.23495,34.06306],[-117.23494,34.06343],[-117.23494,34.06453],[-117.23494,34.0649],[-117.23494,34.06503],[-117.23494,34.06542],[-117.23494,34.06545],[-117.23494,34.06547],[-117.23417,34.06542],[-117.23055,34.06542],[-117.23056,34.06496],[-117.23049,34.06493],[-117.23049,34.06455],[-117.23127,34.06456],[-117.2315,34.06451],[-117.23158,34.06438],[-117.23157,34.06421],[-117.2316,34.06372],[-117.23163,34.06372],[-117.23164,34.06351],[-117.23122,34.0635],[-117.23122,34.06346],[-117.23122,34.06317],[-117.23122,34.06307],[-117.2311,34.06307],[-117.23072,34.06308],[-117.2306,34.06308],[-117.22824,34.06307],[-117.22781,34.06307],[-117.22782,34.06332],[-117.22786,34.06332],[-117.22785,34.06375],[-117.22805,34.06385],[-117.2289,34.06423],[-117.22888,34.06428],[-117.22878,34.06444],[-117.22838,34.06499],[-117.22813,34.06488],[-117.22771,34.06467],[-117.22734,34.0644],[-117.22709,34.06417],[-117.22689,34.06393],[-117.22671,34.06365],[-117.22659,34.06339],[-117.22645,34.06307],[-117.22638,34.06307],[-117.22617,34.06308],[-117.22609,34.06308],[-117.2261,34.06323],[-117.2261,34.06357],[-117.22615,34.06578],[-117.22616,34.06617],[-117.22616,34.06628],[-117.22618,34.06651],[-117.22114,34.0665],[-117.21817,34.06648],[-117.21745,34.06647],[-117.21745,34.06626],[-117.21745,34.06614],[-117.21745,34.06604],[-117.21745,34.06574],[-117.21745,34.06564],[-117.21721,34.06564],[-117.21699,34.06562],[-117.21647,34.06555],[-117.21569,34.06542],[-117.21561,34.06541],[-117.21532,34.06534],[-117.21482,34.06523],[-117.21442,34.06514],[-117.21369,34.06495],[-117.21296,34.06474],[-117.21221,34.06452],[-117.21101,34.06417],[-117.21052,34.06404],[-117.2105,34.06403],[-117.20978,34.06384],[-117.2088,34.06359],[-117.20881,34.06344],[-117.20882,34.06302],[-117.20883,34.06288],[-117.20875,34.06288],[-117.20853,34.06287],[-117.20846,34.06286],[-117.2077,34.0628],[-117.20765,34.06279],[-117.20757,34.06278],[-117.20719,34.06272],[-117.20679,34.06265],[-117.20639,34.06257],[-117.20592,34.06246],[-117.20544,34.06233],[-117.20527,34.06228],[-117.20498,34.06219],[-117.2045,34.06203],[-117.20362,34.06179],[-117.20099,34.06106],[-117.20011,34.06081],[-117.20011,34.06086],[-117.20011,34.06102],[-117.20012,34.06107],[-117.19924,34.06083],[-117.19876,34.06069],[-117.19847,34.0606],[-117.19803,34.06048],[-117.19724,34.06026],[-117.19662,34.06008],[-117.19621,34.05996],[-117.19575,34.05983],[-117.19553,34.05978],[-117.19512,34.05968],[-117.19487,34.05962],[-117.19465,34.05957],[-117.194,34.05945],[-117.19393,34.05944],[-117.19336,34.05933],[-117.19271,34.05923],[-117.19217,34.05916],[-117.19203,34.05915],[-117.19137,34.05909],[-117.19137,34.05897],[-117.19137,34.05862],[-117.19137,34.0585],[-117.19047,34.05852],[-117.19033,34.05852],[-117.18942,34.05852],[-117.18813,34.0585],[-117.18762,34.0585],[-117.18722,34.05851],[-117.18705,34.05851],[-117.18618,34.05851],[-117.18612,34.05844],[-117.18604,34.05829],[-117.18599,34.05822],[-117.18589,34.05803],[-117.18583,34.05789],[-117.18579,34.05777],[-117.18576,34.0576],[-117.18576,34.05758],[-117.18575,34.05732],[-117.18546,34.05732],[-117.18458,34.05732],[-117.18428,34.05732],[-117.18429,34.05757],[-117.1843,34.05832],[-117.18431,34.05857],[-117.18417,34.05855],[-117.18375,34.0585],[-117.18362,34.05848],[-117.18341,34.05848],[-117.18277,34.05849],[-117.18257,34.05849],[-117.18257,34.05825],[-117.18257,34.05755],[-117.18258,34.05732],[-117.18235,34.05732],[-117.18166,34.05731],[-117.18143,34.05731],[-117.18143,34.05765],[-117.18143,34.05803],[-117.18144,34.05852],[-117.18143,34.05868],[-117.18142,34.05885],[-117.1814,34.05902],[-117.18119,34.05902],[-117.18058,34.05901],[-117.18037,34.05901],[-117.18037,34.05867],[-117.18036,34.05765],[-117.18036,34.05731],[-117.18014,34.0573],[-117.17948,34.0573],[-117.17927,34.0573],[-117.17907,34.05729],[-117.17855,34.05728],[-117.1785,34.05727],[-117.17831,34.05726],[-117.17809,34.05728],[-117.17743,34.05733],[-117.17721,34.05735],[-117.17698,34.05735],[-117.17629,34.05734],[-117.17606,34.05733],[-117.17606,34.05715],[-117.17609,34.05659],[-117.17609,34.05641],[-117.17617,34.05641],[-117.17638,34.05641],[-117.17645,34.05641],[-117.17635,34.05631],[-117.17632,34.05629],[-117.17607,34.05597],[-117.17597,34.05586],[-117.17592,34.05579],[-117.17575,34.05559],[-117.1757,34.05552],[-117.17557,34.05535],[-117.17516,34.05483],[-117.17503,34.05465],[-117.17501,34.05463],[-117.17417,34.05361],[-117.17394,34.05334],[-117.17379,34.0532],[-117.17354,34.05294],[-117.17275,34.05212],[-117.17255,34.05187],[-117.17123,34.05029],[-117.17074,34.04968],[-117.16928,34.04787],[-117.1688,34.04726],[-117.1687,34.04714],[-117.16842,34.04678],[-117.16833,34.04666],[-117.16827,34.04659],[-117.16822,34.04652],[-117.16813,34.04642],[-117.16787,34.04613],[-117.16774,34.046],[-117.16761,34.04587],[-117.16748,34.04575],[-117.16739,34.04567],[-117.16721,34.04551],[-117.16706,34.04539],[-117.1669,34.04527],[-117.16655,34.04503],[-117.16633,34.04489],[-117.16621,34.04482],[-117.1658,34.04457],[-117.16529,34.04434],[-117.16475,34.0441],[-117.16402,34.04385],[-117.16372,34.04377],[-117.16319,34.04362],[-117.16304,34.04358],[-117.16264,34.04346],[-117.16206,34.0433],[-117.16163,34.04318],[-117.16137,34.0431],[-117.16114,34.04303],[-117.161,34.04297],[-117.16094,34.04295],[-117.16077,34.04288],[-117.16048,34.04274],[-117.15963,34.04233],[-117.15885,34.04196],[-117.15741,34.04127],[-117.1571,34.04109],[-117.15629,34.04061],[-117.15542,34.04015],[-117.15517,34.04001],[-117.15467,34.03974],[-117.15458,34.03971],[-117.15442,34.03966],[-117.15434,34.03965],[-117.15418,34.03961],[-117.15356,34.03943],[-117.15341,34.0393],[-117.15314,34.03906],[-117.15277,34.03878],[-117.15253,34.03858],[-117.15239,34.03848],[-117.15196,34.0382],[-117.15157,34.03797],[-117.15128,34.0378],[-117.15071,34.0375],[-117.1504,34.03734],[-117.15026,34.03727],[-117.14934,34.0368],[-117.1489,34.0366],[-117.14855,34.03644],[-117.14817,34.0363],[-117.14713,34.03588],[-117.14693,34.03581],[-117.14681,34.03577],[-117.1465,34.03566],[-117.14618,34.03555],[-117.14554,34.03535],[-117.14512,34.03522],[-117.1447,34.0351],[-117.14385,34.03487],[-117.14232,34.03444],[-117.14128,34.03414],[-117.14082,34.034],[-117.14076,34.03398],[-117.13995,34.03372],[-117.13942,34.03354],[-117.13912,34.03342],[-117.13881,34.0333],[-117.13823,34.03307],[-117.13793,34.03295],[-117.13736,34.03272],[-117.13719,34.03265],[-117.13687,34.0325],[-117.13649,34.03234],[-117.13592,34.03208],[-117.13568,34.03198],[-117.13476,34.03158],[-117.13417,34.03133],[-117.13399,34.03125],[-117.13361,34.03109],[-117.13286,34.0308],[-117.13127,34.0302],[-117.13056,34.02992],[-117.13015,34.02973],[-117.12988,34.0296],[-117.12941,34.02936],[-117.12845,34.02886],[-117.12823,34.02876],[-117.12813,34.02871],[-117.12797,34.02864],[-117.12764,34.02851],[-117.12747,34.02845],[-117.12713,34.02835],[-117.12691,34.02829],[-117.12646,34.02819],[-117.12623,34.02815],[-117.12602,34.02811],[-117.12593,34.0281],[-117.12538,34.02801],[-117.12516,34.02798],[-117.12508,34.02797],[-117.12485,34.02793],[-117.12477,34.02792],[-117.12475,34.02792],[-117.12473,34.02798],[-117.12467,34.0282],[-117.12463,34.02828],[-117.12323,34.0304],[-117.12323,34.03389],[-117.12299,34.03389],[-117.12189,34.0339],[-117.12185,34.0339],[-117.1218,34.0339],[-117.12157,34.0339],[-117.12112,34.03389],[-117.12039,34.03388],[-117.12032,34.03388],[-117.12021,34.0339],[-117.12015,34.03391],[-117.11966,34.03392],[-117.1188,34.03393],[-117.11872,34.03393],[-117.11672,34.03391],[-117.11561,34.03389],[-117.11477,34.03388],[-117.1144,34.03388],[-117.1133,34.03387],[-117.11294,34.03387],[-117.11279,34.03387],[-117.11279,34.03427],[-117.11278,34.03545],[-117.11278,34.03585],[-117.11278,34.03722],[-117.11278,34.03757],[-117.11278,34.03777],[-117.11277,34.03922],[-117.11277,34.03969],[-117.11277,34.04109],[-117.11174,34.04109],[-117.10928,34.04109],[-117.10735,34.04109],[-117.10761,34.04125],[-117.10772,34.04132],[-117.108,34.04146],[-117.10812,34.04151],[-117.10823,34.04155],[-117.10836,34.04159],[-117.10838,34.04159],[-117.10867,34.04166],[-117.10889,34.04171],[-117.1089,34.04171],[-117.10914,34.04176],[-117.10938,34.0418],[-117.11002,34.0419],[-117.11022,34.04194],[-117.11062,34.04203],[-117.11081,34.04208],[-117.11086,34.04209],[-117.111,34.04213],[-117.11134,34.04225],[-117.11158,34.04233],[-117.1118,34.04243],[-117.11194,34.0425],[-117.11221,34.04265],[-117.11248,34.04282],[-117.11262,34.04291],[-117.11275,34.04301],[-117.11281,34.04305],[-117.11295,34.04316],[-117.11322,34.0434],[-117.11357,34.04373],[-117.11371,34.04386],[-117.114,34.04411],[-117.11417,34.04424],[-117.11462,34.04456],[-117.11486,34.04475],[-117.11501,34.04487],[-117.11525,34.0451],[-117.11547,34.04534],[-117.11562,34.04552],[-117.11598,34.04597],[-117.11637,34.04652],[-117.11639,34.04655],[-117.11666,34.04689],[-117.1169,34.04719],[-117.11698,34.04728],[-117.1171,34.04738],[-117.11722,34.04748],[-117.11745,34.04765],[-117.11757,34.04773],[-117.11765,34.04778],[-117.1177,34.04781],[-117.11779,34.04786],[-117.11794,34.04793],[-117.11801,34.04797],[-117.11814,34.04802],[-117.11828,34.04808],[-117.11856,34.04817],[-117.11876,34.04821],[-117.11889,34.04823],[-117.11918,34.04829],[-117.1194,34.04832],[-117.11968,34.04833],[-117.11986,34.04833],[-117.12003,34.04832],[-117.12074,34.04827],[-117.12097,34.04826],[-117.12137,34.04825],[-117.12137,34.04896],[-117.12139,34.05112],[-117.1214,34.05184],[-117.12113,34.05184],[-117.1203,34.05183],[-117.11698,34.05183],[-117.11622,34.05183],[-117.11587,34.05184],[-117.11564,34.05185],[-117.11545,34.05184],[-117.11541,34.05185],[-117.11537,34.05186],[-117.1153,34.05189],[-117.11527,34.05191],[-117.11525,34.05194],[-117.11518,34.05209],[-117.11515,34.05213],[-117.11511,34.05218],[-117.11506,34.05221],[-117.11501,34.05224],[-117.11489,34.05227],[-117.11481,34.05229],[-117.11462,34.05231],[-117.11451,34.05234],[-117.11439,34.05238],[-117.1143,34.05243],[-117.11426,34.05246],[-117.11423,34.05249],[-117.11418,34.05256],[-117.11416,34.05259],[-117.11416,34.05262],[-117.11415,34.05268],[-117.11417,34.05287],[-117.11419,34.05295],[-117.11422,34.05304],[-117.11422,34.05308],[-117.1142,34.05312],[-117.11418,34.05316],[-117.11416,34.05318],[-117.1141,34.05323],[-117.11394,34.05331],[-117.11375,34.05339],[-117.11343,34.05354],[-117.11331,34.05358],[-117.11319,34.05363],[-117.113,34.05372],[-117.11293,34.05375],[-117.11287,34.0538],[-117.11281,34.05384],[-117.11276,34.05388],[-117.11272,34.05393],[-117.11266,34.05403],[-117.11254,34.05425],[-117.11242,34.05445],[-117.11236,34.05458],[-117.1123,34.05473],[-117.11215,34.05518],[-117.11205,34.05547],[-117.1109,34.05549],[-117.11063,34.05549],[-117.11042,34.05549],[-117.11005,34.05549],[-117.10991,34.05549],[-117.10893,34.05549],[-117.10855,34.05549],[-117.1087,34.05595],[-117.10877,34.05618],[-117.10878,34.05625],[-117.10883,34.05642],[-117.10886,34.05661],[-117.1089,34.05672],[-117.10897,34.05687],[-117.10901,34.05697],[-117.10906,34.05717],[-117.10923,34.05766],[-117.10932,34.0579],[-117.1094,34.05814],[-117.10941,34.05817],[-117.10947,34.05823],[-117.10947,34.05831],[-117.10945,34.05848],[-117.10944,34.05857],[-117.10942,34.05869],[-117.10939,34.05875],[-117.10934,34.05884],[-117.10928,34.05891],[-117.10914,34.05899],[-117.1091,34.05903],[-117.10906,34.05908],[-117.10904,34.05911],[-117.10898,34.05921],[-117.10893,34.05933],[-117.1089,34.05941],[-117.10877,34.05982],[-117.10876,34.05984],[-117.10875,34.05995],[-117.10882,34.06041],[-117.10882,34.06051],[-117.1088,34.06073],[-117.10879,34.06079],[-117.10877,34.06084],[-117.10871,34.06095],[-117.10864,34.06106],[-117.1086,34.06111],[-117.10853,34.06118],[-117.10851,34.06121],[-117.1085,34.06125],[-117.10847,34.06147],[-117.10845,34.06198],[-117.10843,34.06232],[-117.10843,34.06267],[-117.10843,34.06274],[-117.10867,34.06274],[-117.10939,34.06274],[-117.10964,34.06274],[-117.10968,34.06268],[-117.1098,34.06249],[-117.10996,34.06229],[-117.11008,34.06219],[-117.11011,34.06217],[-117.11021,34.06209],[-117.11035,34.06202],[-117.11049,34.06197],[-117.11063,34.06191],[-117.11074,34.06185],[-117.11094,34.06182],[-117.1114,34.06177],[-117.11166,34.06173],[-117.11184,34.06175],[-117.11212,34.06175],[-117.11231,34.06176],[-117.11251,34.06177],[-117.11263,34.06178],[-117.11283,34.06179],[-117.11295,34.0618],[-117.11311,34.06187],[-117.11329,34.06192],[-117.11385,34.06205],[-117.114,34.06208],[-117.11414,34.06209],[-117.11419,34.06209],[-117.11436,34.0621],[-117.11458,34.06212],[-117.11462,34.06212],[-117.11482,34.06212],[-117.11517,34.06208],[-117.1154,34.06208],[-117.11563,34.06207],[-117.11585,34.06208],[-117.11601,34.0621],[-117.11628,34.06212],[-117.11655,34.06214],[-117.11701,34.06216],[-117.11725,34.06219],[-117.11746,34.06219],[-117.11778,34.06222],[-117.11778,34.0622],[-117.11838,34.06214],[-117.11877,34.06215],[-117.1192,34.06222],[-117.11961,34.06219],[-117.12013,34.0622],[-117.1204,34.06214],[-117.12061,34.06206],[-117.12079,34.06198],[-117.12123,34.06176],[-117.12151,34.06167],[-117.12151,34.06127],[-117.12149,34.05965],[-117.12149,34.05912],[-117.12583,34.05911],[-117.12582,34.06088],[-117.12581,34.06281],[-117.12642,34.06281],[-117.12827,34.06282],[-117.12888,34.06283],[-117.12907,34.06283],[-117.12963,34.06283],[-117.12982,34.06283],[-117.13075,34.06284],[-117.13354,34.06285],[-117.13447,34.06285],[-117.13508,34.06285],[-117.13666,34.06287],[-117.13692,34.06287],[-117.13753,34.06287],[-117.13781,34.06286],[-117.13854,34.06286],[-117.13868,34.06286],[-117.13896,34.06286],[-117.13896,34.06291],[-117.13896,34.06306],[-117.13895,34.06311],[-117.13895,34.0632],[-117.13888,34.06351],[-117.13887,34.06354],[-117.13888,34.06444],[-117.13889,34.06473],[-117.13889,34.06514],[-117.13889,34.06541],[-117.1389,34.06624],[-117.1389,34.06652],[-117.1384,34.06651],[-117.13689,34.0665],[-117.13652,34.06649],[-117.13647,34.06649],[-117.13643,34.06649],[-117.13639,34.06649],[-117.13639,34.06656],[-117.13638,34.06698],[-117.13635,34.06843],[-117.13634,34.06891],[-117.13659,34.06891],[-117.13734,34.06892],[-117.13759,34.06892],[-117.13785,34.06893],[-117.13811,34.06893],[-117.1382,34.06893],[-117.13864,34.06894],[-117.1389,34.06894],[-117.1389,34.06907],[-117.1389,34.06945],[-117.13889,34.06958],[-117.13889,34.06966],[-117.13889,34.06988],[-117.13889,34.06995],[-117.13889,34.06999],[-117.13889,34.0701],[-117.13889,34.07014],[-117.13892,34.07085],[-117.13889,34.07334],[-117.13884,34.0738],[-117.13884,34.07404],[-117.13884,34.07503],[-117.13884,34.0755],[-117.13885,34.07692],[-117.13885,34.07739],[-117.13885,34.07802],[-117.13888,34.0799],[-117.13888,34.08053],[-117.13888,34.08076],[-117.13889,34.08102],[-117.13889,34.08153],[-117.1389,34.08167],[-117.1389,34.08195],[-117.13891,34.08281],[-117.13891,34.0831],[-117.13884,34.08322],[-117.13885,34.08389],[-117.13886,34.08459],[-117.13813,34.08458],[-117.138,34.08458],[-117.13737,34.08457],[-117.13724,34.08457],[-117.13647,34.08456],[-117.13639,34.08456],[-117.13644,34.08474],[-117.1368,34.08597],[-117.13689,34.08629],[-117.13692,34.08639],[-117.13696,34.08653],[-117.13736,34.08789],[-117.13746,34.08824],[-117.13773,34.08915],[-117.13779,34.08936],[-117.13789,34.08972],[-117.13796,34.08989],[-117.13803,34.09007],[-117.1381,34.09024],[-117.13818,34.09041],[-117.13825,34.09057],[-117.13831,34.09056],[-117.13891,34.09036],[-117.13937,34.09021],[-117.14181,34.08965],[-117.14194,34.08962],[-117.14631,34.08862],[-117.15068,34.08762],[-117.15252,34.0872],[-117.15282,34.08713],[-117.15437,34.08677],[-117.15484,34.08667],[-117.15531,34.08656],[-117.15605,34.08661],[-117.15648,34.0864],[-117.15659,34.08641],[-117.1567,34.08641],[-117.15779,34.08643],[-117.15872,34.0859],[-117.15975,34.08526],[-117.16042,34.08485],[-117.16159,34.08448],[-117.16332,34.08447],[-117.16434,34.08447],[-117.16456,34.08446],[-117.16613,34.08506],[-117.16735,34.08614],[-117.16805,34.08614],[-117.16871,34.08615],[-117.16922,34.08616],[-117.16987,34.08619],[-117.17004,34.0862],[-117.17071,34.08624],[-117.17137,34.08629],[-117.17203,34.08635],[-117.17269,34.08642],[-117.17335,34.08649],[-117.17346,34.08651],[-117.174,34.08658],[-117.17527,34.08683],[-117.17954,34.08765],[-117.18066,34.08806],[-117.18214,34.08859],[-117.1824,34.08869],[-117.18249,34.08872],[-117.18476,34.08929],[-117.18608,34.08958],[-117.18642,34.08966],[-117.18871,34.09073],[-117.19598,34.0931],[-117.19677,34.09341],[-117.19814,34.09396],[-117.20029,34.09482],[-117.20043,34.09487],[-117.20057,34.09493],[-117.20066,34.09496],[-117.20197,34.09485],[-117.2069,34.09443],[-117.20708,34.09447],[-117.20769,34.0946],[-117.20823,34.09452],[-117.20877,34.09444],[-117.20877,34.09525],[-117.20877,34.09567],[-117.20877,34.09691],[-117.20877,34.09768],[-117.20877,34.0977],[-117.20877,34.09849],[-117.20877,34.09866],[-117.20877,34.0991],[-117.21203,34.09917],[-117.21529,34.09923],[-117.2153,34.09882],[-117.21746,34.09824],[-117.21746,34.09713],[-117.22383,34.09504],[-117.22614,34.09429],[-117.22615,34.09405],[-117.22614,34.09209],[-117.22637,34.09209],[-117.22663,34.09209],[-117.22663,34.09211],[-117.22748,34.09211],[-117.23095,34.09212],[-117.23165,34.09211],[-117.23341,34.09211],[-117.23356,34.09212],[-117.23359,34.0921],[-117.23385,34.09191],[-117.23409,34.09184],[-117.2348,34.09161],[-117.23482,34.09161],[-117.23664,34.09083],[-117.24214,34.08849],[-117.2428,34.08825],[-117.24397,34.08771]]]},"properties":{"ZCTA5":"92374"}}]}